HAMSAT (VO-52)          
1 28650U 05017B   24120.53361624  .00004747  00000+0  41507-3 0  9994
2 28650  97.9856 105.8921 0021534 119.5317 240.8055 14.97076828 29710
